[{"OBJECT_NAME":"BEIDOU-2 G5 (C05)","OBJECT_ID":"2012-008A","EPOCH":"2026-04-05T04:28:03.586368","MEAN_MOTION":1.00276225,"ECCENTRICITY":0.00131804,"INCLINATION":3.3924,"RA_OF_ASC_NODE":70.1158,"ARG_OF_PERICENTER":261.3911,"MEAN_ANOMALY":347.7894,"EPHEMERIS_TYPE":0,"CLASSIFICATION_TYPE":"U","NORAD_CAT_ID":38091,"ELEMENT_SET_NO":999,"REV_AT_EPOCH":5163,"BSTAR":0,"MEAN_MOTION_DOT":5.8e-7,"MEAN_MOTION_DDOT":0},{"OBJECT_NAME":"BEIDOU-2 M3 (C11)","OBJECT_ID":"2012-018A","EPOCH":"2026-04-04T02:07:31.417248","MEAN_MOTION":1.86229902,"ECCENTRICITY":0.00201848,"INCLINATION":55.8207,"RA_OF_ASC_NODE":307.3724,"ARG_OF_PERICENTER":279.408,"MEAN_ANOMALY":80.3921,"EPHEMERIS_TYPE":0,"CLASSIFICATION_TYPE":"U","NORAD_CAT_ID":38250,"ELEMENT_SET_NO":999,"REV_AT_EPOCH":9456,"BSTAR":0,"MEAN_MOTION_DOT":-6.4e-7,"MEAN_MOTION_DDOT":0},{"OBJECT_NAME":"BEIDOU-2 M4 (C12)","OBJECT_ID":"2012-018B","EPOCH":"2026-04-04T00:29:52.807776","MEAN_MOTION":1.86229532,"ECCENTRICITY":0.00114801,"INCLINATION":55.7212,"RA_OF_ASC_NODE":306.5945,"ARG_OF_PERICENTER":286.2876,"MEAN_ANOMALY":73.6134,"EPHEMERIS_TYPE":0,"CLASSIFICATION_TYPE":"U","NORAD_CAT_ID":38251,"ELEMENT_SET_NO":999,"REV_AT_EPOCH":9456,"BSTAR":0,"MEAN_MOTION_DOT":-6.4e-7,"MEAN_MOTION_DDOT":0},{"OBJECT_NAME":"SES-5 (EGNOS/PRN 136)","OBJECT_ID":"2012-036A","EPOCH":"2026-04-05T05:28:38.784288","MEAN_MOTION":1.00271682,"ECCENTRICITY":0.00020162,"INCLINATION":0.0599,"RA_OF_ASC_NODE":303.013,"ARG_OF_PERICENTER":75.2098,"MEAN_ANOMALY":262.4372,"EPHEMERIS_TYPE":0,"CLASSIFICATION_TYPE":"U","NORAD_CAT_ID":38652,"ELEMENT_SET_NO":999,"REV_AT_EPOCH":4372,"BSTAR":0,"MEAN_MOTION_DOT":3.5e-7,"MEAN_MOTION_DDOT":0},{"OBJECT_NAME":"BEIDOU-2 M6 (C14)","OBJECT_ID":"2012-050B","EPOCH":"2026-04-04T19:18:40.582368","MEAN_MOTION":1.86231043,"ECCENTRICITY":0.00144563,"INCLINATION":56.4825,"RA_OF_ASC_NODE":65.3192,"ARG_OF_PERICENTER":345.2296,"MEAN_ANOMALY":14.7002,"EPHEMERIS_TYPE":0,"CLASSIFICATION_TYPE":"U","NORAD_CAT_ID":38775,"ELEMENT_SET_NO":999,"REV_AT_EPOCH":9194,"BSTAR":0,"MEAN_MOTION_DOT":-4.0e-7,"MEAN_MOTION_DDOT":0},{"OBJECT_NAME":"GSAT-10 (GAGAN/PRN 128)","OBJECT_ID":"2012-051B","EPOCH":"2026-04-05T02:57:21.746304","MEAN_MOTION":1.00273123,"ECCENTRICITY":0.00062673,"INCLINATION":0.0824,"RA_OF_ASC_NODE":265.6529,"ARG_OF_PERICENTER":171.8567,"MEAN_ANOMALY":243.2403,"EPHEMERIS_TYPE":0,"CLASSIFICATION_TYPE":"U","NORAD_CAT_ID":38779,"ELEMENT_SET_NO":999,"REV_AT_EPOCH":4936,"BSTAR":0,"MEAN_MOTION_DOT":-1.64e-6,"MEAN_MOTION_DDOT":0},{"OBJECT_NAME":"GPS BIIF-3  (PRN 24)","OBJECT_ID":"2012-053A","EPOCH":"2026-04-05T00:38:43.263168","MEAN_MOTION":2.00566348,"ECCENTRICITY":0.01774159,"INCLINATION":53.5702,"RA_OF_ASC_NODE":146.5972,"ARG_OF_PERICENTER":64.9825,"MEAN_ANOMALY":296.9316,"EPHEMERIS_TYPE":0,"CLASSIFICATION_TYPE":"U","NORAD_CAT_ID":38833,"ELEMENT_SET_NO":999,"REV_AT_EPOCH":9797,"BSTAR":0,"MEAN_MOTION_DOT":2.4e-7,"MEAN_MOTION_DDOT":0},{"OBJECT_NAME":"GSAT0103 (GALILEO-FM3)","OBJECT_ID":"2012-055A","EPOCH":"2026-04-04T13:34:39.647424","MEAN_MOTION":1.70473519,"ECCENTRICITY":0.00059107,"INCLINATION":55.7599,"RA_OF_ASC_NODE":103.564,"ARG_OF_PERICENTER":291.5496,"MEAN_ANOMALY":68.4144,"EPHEMERIS_TYPE":0,"CLASSIFICATION_TYPE":"U","NORAD_CAT_ID":38857,"ELEMENT_SET_NO":999,"REV_AT_EPOCH":8375,"BSTAR":0,"MEAN_MOTION_DOT":3.0e-7,"MEAN_MOTION_DDOT":0},{"OBJECT_NAME":"BEIDOU-2 G6 (C02)","OBJECT_ID":"2012-059A","EPOCH":"2026-04-05T01:09:52.593696","MEAN_MOTION":1.00271726,"ECCENTRICITY":0.00109275,"INCLINATION":4.237,"RA_OF_ASC_NODE":74.2924,"ARG_OF_PERICENTER":311.7479,"MEAN_ANOMALY":268.8374,"EPHEMERIS_TYPE":0,"CLASSIFICATION_TYPE":"U","NORAD_CAT_ID":38953,"ELEMENT_SET_NO":999,"REV_AT_EPOCH":4917,"BSTAR":0,"MEAN_MOTION_DOT":-1.73e-6,"MEAN_MOTION_DDOT":0},{"OBJECT_NAME":"LUCH 5B (SDCM/PRN 125)","OBJECT_ID":"2012-061A","EPOCH":"2026-04-05T04:06:35.644032","MEAN_MOTION":1.00273707,"ECCENTRICITY":0.00023371,"INCLINATION":10.3284,"RA_OF_ASC_NODE":50.5926,"ARG_OF_PERICENTER":229.5635,"MEAN_ANOMALY":318.6546,"EPHEMERIS_TYPE":0,"CLASSIFICATION_TYPE":"U","NORAD_CAT_ID":38977,"ELEMENT_SET_NO":999,"REV_AT_EPOCH":4887,"BSTAR":0,"MEAN_MOTION_DOT":-1.34e-6,"MEAN_MOTION_DDOT":0},{"OBJECT_NAME":"COSMOS 2485 (747)","OBJECT_ID":"2013-019A","EPOCH":"2026-04-03T07:08:48.331104","MEAN_MOTION":2.13103023,"ECCENTRICITY":0.00250981,"INCLINATION":65.3788,"RA_OF_ASC_NODE":76.1162,"ARG_OF_PERICENTER":237.7826,"MEAN_ANOMALY":121.9613,"EPHEMERIS_TYPE":0,"CLASSIFICATION_TYPE":"U","NORAD_CAT_ID":39155,"ELEMENT_SET_NO":999,"REV_AT_EPOCH":10068,"BSTAR":0,"MEAN_MOTION_DOT":-3.0e-8,"MEAN_MOTION_DDOT":0},{"OBJECT_NAME":"GPS BIIF-4  (PRN 27)","OBJECT_ID":"2013-023A","EPOCH":"2026-03-31T21:41:02.271264","MEAN_MOTION":2.00563989,"ECCENTRICITY":0.0141962,"INCLINATION":54.5658,"RA_OF_ASC_NODE":272.1198,"ARG_OF_PERICENTER":50.3418,"MEAN_ANOMALY":310.8851,"EPHEMERIS_TYPE":0,"CLASSIFICATION_TYPE":"U","NORAD_CAT_ID":39166,"ELEMENT_SET_NO":999,"REV_AT_EPOCH":9433,"BSTAR":0,"MEAN_MOTION_DOT":-3.4e-7,"MEAN_MOTION_DDOT":0},{"OBJECT_NAME":"IRNSS-1A","OBJECT_ID":"2013-034A","EPOCH":"2026-04-02T23:54:38.734560","MEAN_MOTION":1.00278968,"ECCENTRICITY":0.00167253,"INCLINATION":35.5564,"RA_OF_ASC_NODE":64.9409,"ARG_OF_PERICENTER":190.8703,"MEAN_ANOMALY":349.2228,"EPHEMERIS_TYPE":0,"CLASSIFICATION_TYPE":"U","NORAD_CAT_ID":39199,"ELEMENT_SET_NO":999,"REV_AT_EPOCH":4661,"BSTAR":0,"MEAN_MOTION_DOT":8.1e-7,"MEAN_MOTION_DDOT":0},{"OBJECT_NAME":"GPS BIIF-5  (PRN 30)","OBJECT_ID":"2014-008A","EPOCH":"2026-04-04T21:24:37.656864","MEAN_MOTION":2.00555176,"ECCENTRICITY":0.00832898,"INCLINATION":53.641,"RA_OF_ASC_NODE":152.3102,"ARG_OF_PERICENTER":229.4069,"MEAN_ANOMALY":129.9443,"EPHEMERIS_TYPE":0,"CLASSIFICATION_TYPE":"U","NORAD_CAT_ID":39533,"ELEMENT_SET_NO":999,"REV_AT_EPOCH":8821,"BSTAR":0,"MEAN_MOTION_DOT":2.4e-7,"MEAN_MOTION_DDOT":0},{"OBJECT_NAME":"ASTRA 5B (EGNOS/PRN 123)","OBJECT_ID":"2014-011B","EPOCH":"2026-04-05T05:12:38.653056","MEAN_MOTION":1.00273337,"ECCENTRICITY":0.00033646,"INCLINATION":0.073,"RA_OF_ASC_NODE":306.6325,"ARG_OF_PERICENTER":49.4986,"MEAN_ANOMALY":299.035,"EPHEMERIS_TYPE":0,"CLASSIFICATION_TYPE":"U","NORAD_CAT_ID":39617,"ELEMENT_SET_NO":999,"REV_AT_EPOCH":4393,"BSTAR":0,"MEAN_MOTION_DOT":1.38e-6,"MEAN_MOTION_DDOT":0},{"OBJECT_NAME":"COSMOS 2492 (754)","OBJECT_ID":"2014-012A","EPOCH":"2026-04-03T06:09:42.791328","MEAN_MOTION":2.13103206,"ECCENTRICITY":0.0012343,"INCLINATION":65.34,"RA_OF_ASC_NODE":316.4836,"ARG_OF_PERICENTER":329.783,"MEAN_ANOMALY":30.1983,"EPHEMERIS_TYPE":0,"CLASSIFICATION_TYPE":"U","NORAD_CAT_ID":39620,"ELEMENT_SET_NO":999,"REV_AT_EPOCH":9364,"BSTAR":0,"MEAN_MOTION_DOT":-4.5e-7,"MEAN_MOTION_DDOT":0},{"OBJECT_NAME":"IRNSS-1B","OBJECT_ID":"2014-017A","EPOCH":"2026-04-04T23:19:11.264160","MEAN_MOTION":1.00265949,"ECCENTRICITY":0.00229168,"INCLINATION":29.0655,"RA_OF_ASC_NODE":241.6543,"ARG_OF_PERICENTER":179.7859,"MEAN_ANOMALY":176.7911,"EPHEMERIS_TYPE":0,"CLASSIFICATION_TYPE":"U","NORAD_CAT_ID":39635,"ELEMENT_SET_NO":999,"REV_AT_EPOCH":4405,"BSTAR":0,"MEAN_MOTION_DOT":1.03e-6,"MEAN_MOTION_DDOT":0}]
